STARLINK-5050           
1 53890U 22119E   26068.92350483  .00000182  00000+0  29533-4 0  9992
2 53890  53.2178 287.8552 0001296  89.5549 270.5592 15.08836351192213
2025-180B               
1 65260U 25180B   26061.32709697  .00005888  00000+0  32386-3 0  9996
2 65260  97.5099 189.7404 0014719 334.9723  25.0794 15.14359033 29480
