[{"OBJECT_NAME":"STARLINK-5050","OBJECT_ID":"2022-119E","EPOCH":"2026-03-09T22:09:50.817312","MEAN_MOTION":15.08836351,"ECCENTRICITY":0.00012955,"INCLINATION":53.2178,"RA_OF_ASC_NODE":287.8552,"ARG_OF_PERICENTER":89.5549,"MEAN_ANOMALY":270.5592,"EPHEMERIS_TYPE":0,"CLASSIFICATION_TYPE":"U","NORAD_CAT_ID":53890,"ELEMENT_SET_NO":999,"REV_AT_EPOCH":19221,"BSTAR":2.9532544e-5,"MEAN_MOTION_DOT":1.82e-6,"MEAN_MOTION_DDOT":0},{"OBJECT_NAME":"OBJECT B","OBJECT_ID":"2025-180B","EPOCH":"2026-03-02T07:51:01.178208","MEAN_MOTION":15.14359033,"ECCENTRICITY":0.0014719,"INCLINATION":97.5099,"RA_OF_ASC_NODE":189.7404,"ARG_OF_PERICENTER":334.9723,"MEAN_ANOMALY":25.0794,"EPHEMERIS_TYPE":0,"CLASSIFICATION_TYPE":"U","NORAD_CAT_ID":65260,"ELEMENT_SET_NO":999,"REV_AT_EPOCH":2948,"BSTAR":0.00032386063,"MEAN_MOTION_DOT":5.888e-5,"MEAN_MOTION_DDOT":0}]
